[{"OBJECT_NAME":"SPAWAR-CAL-OR","OBJECT_ID":"2018-099W","EPOCH":"2026-03-09T16:14:17.483136","MEAN_MOTION":15.21464282,"ECCENTRICITY":0.00104186,"INCLINATION":97.3939,"RA_OF_ASC_NODE":118.6375,"ARG_OF_PERICENTER":310.1337,"MEAN_ANOMALY":49.8986,"EPHEMERIS_TYPE":0,"CLASSIFICATION_TYPE":"U","NORAD_CAT_ID":43778,"ELEMENT_SET_NO":999,"REV_AT_EPOCH":39751,"BSTAR":0.00050868189,"MEAN_MOTION_DOT":0.00011389,"MEAN_MOTION_DDOT":0},{"OBJECT_NAME":"SITRO-AIS-63","OBJECT_ID":"2025-313AY","EPOCH":"2026-03-09T22:32:46.298400","MEAN_MOTION":15.23042258,"ECCENTRICITY":0.00086521,"INCLINATION":97.4009,"RA_OF_ASC_NODE":145.3484,"ARG_OF_PERICENTER":354.3541,"MEAN_ANOMALY":5.7597,"EPHEMERIS_TYPE":0,"CLASSIFICATION_TYPE":"U","NORAD_CAT_ID":67294,"ELEMENT_SET_NO":999,"REV_AT_EPOCH":1086,"BSTAR":0.0005301085,"MEAN_MOTION_DOT":0.00012433,"MEAN_MOTION_DDOT":0}]
